#dP2023  6 16  0  0  0.00000000      96 __u+U ITR00 EXT  IAC
## 2266 432000.00000000   900.00000000 60111 0.0000000000000
+  119   C06C07C08C09C10C11C12C13C14C16C19C20C21C22C23C24C25
+        C26C27C28C29C30C32C33C34C35C36C37C38C39C40C41C42C43
+        C44C45C46E02E03E04E05E07E08E09E10E11E12E13E14E15E18
+        E19E21E24E25E26E27E30E31E33E34E36G01G02G03G04G05G06
+        G07G08G09G10G11G12G13G14G15G16G17G18G19G20G21G22G23
+        G24G25G26G27G28G29G30G31G32J02J03J04R01R02R03R04R05
+        R07R08R09R11R12R13R14R15R16R17R18R19R20R21R22R24R25
++         9  9 11 10  9  9 10 10  9  8  7  7  7  8  9  9  8
++         7  7  7  8  9  8  8  8  7  7  8  8 10 11  9  8  7
++         8  8  7  7  7  8  6  7  6  7  6  7  7  6  8  8  8
++         8  7  8  7  6  7  8  8  7  8  7  7  6  6  8  8  7
++         8  7  7  6  8  6  6  7  7  6  7  8  7  7  7  6  8
++         7  7  7  8  6  7  6  6  7  8  8  9  9  8  8  7  9
++         7  8  8  8  7  7  8  9  8  8  8  9  9  7  7  7  7
%c M  cc GPS ccc cccc cccc cccc cccc ccccc ccccc ccccc ccccc
%c cc cc ccc ccc cccc cccc cccc cccc ccccc ccccc ccccc ccccc
%f  0.0000000  0.000000000  0.00000000000  0.000000000000000
%f  0.0000000  0.000000000  0.00000000000  0.000000000000000
%i    0    0    0    0      0      0      0      0         0
%i    0    0    0    0      0      0      0      0         0
/* IAC                                ULTRA-RAPID PREDICTION
/* S/V CLOCKS ARE ALIGNED TO GNSS TIME                      
/* G:C1WC2W R:C1PC2P E:C1XC5X C:C2IC6I J:C1CC2S             
/* PCV:IGS20_2247 OL/AL:FES2004  NONE     YN ORB:CoN CLK:CoN
*  2023 06 16  2 15  0.00000000
PC06  -1653.409372  31996.357294 -27219.314118   -177.210811
PC07 -14160.853431  27835.124683  28307.508985   -178.861618
PC08 -13813.423598  39643.145754  -4891.921772    458.067948
PC09   6457.393683  36279.753693 -19525.399314    529.401905
PC10  -5375.943208  28222.687569  31048.024114    -87.198293
PC11  17894.912935  -2302.191594 -21235.781369    676.340371
PC12  22776.690499  13957.586223  -8061.840098    715.921240
PC13  -8013.694595  39850.330312 -11564.154605    297.070857
PC14  25878.293497 -10272.847304   2364.683381    416.522050
PC16  -2681.204852  30666.159523 -28444.928719     41.540952
PC19 -20699.069309  14899.228318 -11267.862022   -923.893575
PC20 -26903.850162   5051.774416   5331.174414    500.319494
PC21  17344.394858   8678.028113 -20061.805878   -923.902165
PC22  -2197.397730  16670.707191 -22266.102569   -439.043831
PC23   2775.513518 -27465.725774  -4077.166529   -959.246901
PC24  16718.165345  -1320.822605  22296.679452     67.142773
PC25  12918.141760 -21494.328961  12216.674179    148.242255
PC26  10784.988986  17233.612501  19118.066488   -135.342339
PC27 -20559.504932 -18877.425741    -78.094267    155.781910
PC28  -8109.354361 -21870.107382 -15317.050678    115.731537
PC29 -10623.863504  11946.461982  22862.066905    134.611423
PC30 -22713.131563  -5117.069610  15386.405687     -1.236066
PC32 -17293.830835  -8644.480932  20131.000151   -548.449106
PC33  20693.296813 -15030.626865  11197.299354   -896.048649
PC34  22288.171870   3868.002173 -16345.084257    194.044035
PC35   8323.841878  21498.484839  15685.375812    607.116659
PC36 -13716.175853  20647.118750 -12795.021765   -380.959030
PC37  -9785.757949 -18391.843390 -18540.972531   -785.888723
PC38 -17242.958825  38432.405968   3199.053730     85.394096
PC39  -5884.549386  27392.777755 -31374.036222     -3.333327
PC40 -19913.942286  21670.705034  30090.056364    -26.371312
PC41   2930.600835 -16878.393112  22084.853896   -920.435049
PC42  26803.628772  -4194.736349  -6564.813781   -647.883106
PC43  11462.132395 -11373.014774 -22773.107856     26.384442
PC44  21177.038507  18148.701809    210.485514    139.448053
PC45  -2475.140750  27426.106321   4587.422195   -110.866688
PC46 -16770.432925   3092.983329 -22091.654931    -61.833726
PE02  -3952.322980  22553.861447  18762.807993     44.296820
PE03   7240.799814  17952.851013 -22394.024736    -26.792310
PE04 -24805.839999 -12989.565184   9601.764407   -145.728753
PE05 -14941.430262  12471.641510 -22291.791517    -57.604765
PE07  28236.281941    447.573422   8904.937798    -52.974648
PE08  24656.505379  13046.267507  -9918.435636    -99.653889
PE09 -28252.835036   -582.148163  -8771.303336    -51.615220
PE10 -17470.350806 -11154.844978  21115.953439   -541.525159
PE11 -16387.012010    756.175930  24622.159264   2233.268270
PE12 -15798.384462 -20327.565215  14613.559520   -581.420566
PE13  16498.720872     81.415984 -24578.962241    -19.275759
PE14    145.308788 -19629.517897 -22190.364341    255.304402
PE15  15690.642206  20574.695898 -14372.439498    -29.793280
PE18  17793.531105  17750.722295  12639.763173    186.828900
PE19  -4220.339133 -17728.012963  23337.091662  -2290.054687
PE21  18783.058946 -22655.440242  -3194.191286   -535.241607
PE24 -23573.411158   8898.958038 -15559.097099   -157.335076
PE25 -18976.580447  22535.858414   2869.974624   -606.826113
PE26   7323.438353 -20817.093604 -19731.154351    135.352106
PE27  23603.341262  -9620.483065  15050.774605    -75.732852
PE30  14075.623637   9483.176592  24243.170390   -258.909094
PE31 -14471.049891  -8926.606715 -24221.569389   -525.979114
PE33  -5622.210371 -28756.429826  -4239.259206   -443.106770
PE34   5784.245816  28744.701608   4071.336402    -51.044122
PE36  -7641.768595  20173.674083  20258.265736    -71.896220
PG01 -14419.531368   1552.225229  21925.053929    178.136093
PG02 -16580.035501  -3943.950106  20911.684897   -585.389779
PG03 -21566.967719  10746.570618  10898.445594   -268.899460
PG04 -23595.080992   1379.874194 -12217.729311     69.471865
PG05  16105.727867   3961.307711 -20948.276504   -131.272158
PG06   4923.476469  25969.963192   2053.912901    584.794832
PG07  -8347.576012  17643.737680 -17324.272733    151.171092
PG08 -26055.299948  -6136.786680    620.912627   -127.608451
PG09 -16247.941405   9523.310674 -18816.226635   -134.778425
PG10   6814.233896 -20768.432905  15041.477904    -41.334955
PG11  12680.155671  19832.819083 -12337.740338   -237.230302
PG12  21938.200251  -6773.080420  13004.416983   -389.107864
PG13  22286.012460  13735.984179  -5284.800195    534.566352
PG14 -10047.818757  21182.725338  12345.221323     91.978810
PG15  26498.846850   3109.303471    616.227627     49.245425
PG16 -13161.714765  -8678.969346 -21732.436462   -491.038444
PG17    -41.499209  15706.456027  21834.228335    718.484497
PG18   6420.755648 -20169.170642 -15945.917591   -309.236244
PG19   8972.716242  16989.721761  18250.734142    331.148988
PG20   9598.244744  12680.901459 -21258.853462    427.779825
PG21 -17171.582335  -7909.520930  19527.012558    153.065159
PG22 -11939.442894 -17102.155178  16988.182690    498.509926
PG23  16232.486439 -20547.498766   3911.442999     33.597788
PG24  16750.355227   2657.572215  20168.068136   -226.278779
PG25  19933.257542 -17045.323645   2842.859584    450.072196
PG26  -3718.337126 -17561.345530 -19589.455062    238.939803
PG27 -21123.668179 -13124.837200 -10138.453826     15.663248
PG28  -4677.543823 -25852.081793   3900.808186     83.296236
PG29  18601.638984  -6168.921779 -18027.031446   -602.922453
PG30  -1454.575189  24458.381218  -9792.480032   -510.756086
PG31 -11033.935583 -22587.903967  -8039.127975   -218.249589
PG32  -3712.323798 -16212.651817  20931.572590   -501.125029
PJ02 -29398.050561  30208.458641   4510.721603     -0.566942
PJ03 -24754.337677  24433.108004  28930.562184      6.631379
PJ04 -33584.408341  22776.577302  -6186.143431     95.448668
PR01  -4698.130488  11530.295118 -22256.637121     59.514612
PR02  14604.311471   7356.181731 -19507.583554    -22.699004
PR03  24901.868455   -863.997718  -5279.711537     79.759090
PR04  21254.018257  -8133.094792  11545.430870    191.368274
PR05   6109.344886 -11130.952489  22133.413469    114.233152
PR07 -25095.374634   1187.439880   4593.173412     58.134539
PR08 -21143.035009   8329.951544 -11553.243645    -71.283350
PR09  -4766.237768 -15257.858652 -19885.131196    126.032368
PR11 -13392.246124  17525.459889 -12783.996940    -80.700212
PR12  -6487.703560  23926.870413   6061.990897     28.181782
PR13   3283.372955  16704.449976  18985.098565    -36.138476
PR14  12440.221557  -2191.097655  22179.842870     24.796203
PR15  13440.786663 -18268.536396  11705.331892     88.567559
PR16   6555.440850 -24001.872138  -5695.897015     15.683998
PR17  16829.807621   9525.487225 -16656.147644    639.393674
PR18   8873.452543  -5601.868181 -23240.681863     86.815718
PR19  -1929.534191 -17205.848698 -18737.621154   -236.426261
PR20 -14551.906099 -20974.150673   -317.029367    -94.821274
PR21 -16340.098232  -8454.401429  17647.955330    -15.554901
PR22  -8828.241068   6370.920522  23088.916137     81.282417
PR24  15493.604563  20272.623457   -299.751470    -12.025916
PR25 -16562.409542 -10208.070391  16485.531840     59.295631
EOF
